[{"OBJECT_NAME":"KUIPER-00268","OBJECT_ID":"2026-030AC","EPOCH":"2026-03-03T02:52:32.149056","MEAN_MOTION":15.35688201,"ECCENTRICITY":0.0002523,"INCLINATION":51.8839,"RA_OF_ASC_NODE":250.7925,"ARG_OF_PERICENTER":30.8271,"MEAN_ANOMALY":329.2863,"EPHEMERIS_TYPE":0,"CLASSIFICATION_TYPE":"U","NORAD_CAT_ID":67790,"ELEMENT_SET_NO":999,"REV_AT_EPOCH":408,"BSTAR":0.001083,"MEAN_MOTION_DOT":0.00037974,"MEAN_MOTION_DDOT":0},{"OBJECT_NAME":"KUIPER-00270","OBJECT_ID":"2026-030AD","EPOCH":"2026-03-03T03:16:53.090976","MEAN_MOTION":15.3434011,"ECCENTRICITY":0.0010045,"INCLINATION":51.8798,"RA_OF_ASC_NODE":250.8926,"ARG_OF_PERICENTER":37.7212,"MEAN_ANOMALY":322.4476,"EPHEMERIS_TYPE":0,"CLASSIFICATION_TYPE":"U","NORAD_CAT_ID":67791,"ELEMENT_SET_NO":999,"REV_AT_EPOCH":408,"BSTAR":0.0010343,"MEAN_MOTION_DOT":0.00034744,"MEAN_MOTION_DDOT":0},{"OBJECT_NAME":"KUIPER-00274","OBJECT_ID":"2026-030AE","EPOCH":"2026-03-03T03:48:13.093632","MEAN_MOTION":15.31631085,"ECCENTRICITY":0.0018339,"INCLINATION":51.8817,"RA_OF_ASC_NODE":251.0383,"ARG_OF_PERICENTER":48.7251,"MEAN_ANOMALY":311.5309,"EPHEMERIS_TYPE":0,"CLASSIFICATION_TYPE":"U","NORAD_CAT_ID":67792,"ELEMENT_SET_NO":999,"REV_AT_EPOCH":408,"BSTAR":0.0011571,"MEAN_MOTION_DOT":0.00035842,"MEAN_MOTION_DDOT":0},{"OBJECT_NAME":"KUIPER-00275","OBJECT_ID":"2026-030AF","EPOCH":"2026-03-03T03:13:16.587264","MEAN_MOTION":15.34413947,"ECCENTRICITY":0.0008774,"INCLINATION":51.8831,"RA_OF_ASC_NODE":250.8846,"ARG_OF_PERICENTER":35.4031,"MEAN_ANOMALY":324.7535,"EPHEMERIS_TYPE":0,"CLASSIFICATION_TYPE":"U","NORAD_CAT_ID":67793,"ELEMENT_SET_NO":999,"REV_AT_EPOCH":408,"BSTAR":0.00097146,"MEAN_MOTION_DOT":0.00032667,"MEAN_MOTION_DDOT":0},{"OBJECT_NAME":"KUIPER-00276","OBJECT_ID":"2026-030AG","EPOCH":"2026-03-03T03:53:44.326176","MEAN_MOTION":15.31493795,"ECCENTRICITY":0.0018313,"INCLINATION":51.8814,"RA_OF_ASC_NODE":251.0593,"ARG_OF_PERICENTER":47.6892,"MEAN_ANOMALY":312.564,"EPHEMERIS_TYPE":0,"CLASSIFICATION_TYPE":"U","NORAD_CAT_ID":67794,"ELEMENT_SET_NO":999,"REV_AT_EPOCH":408,"BSTAR":9.6025e-5,"MEAN_MOTION_DOT":2.602e-5,"MEAN_MOTION_DDOT":0},{"OBJECT_NAME":"KUIPER-00279","OBJECT_ID":"2026-030AH","EPOCH":"2026-03-03T03:04:57.311040","MEAN_MOTION":15.350635,"ECCENTRICITY":0.0006269,"INCLINATION":51.8793,"RA_OF_ASC_NODE":250.8378,"ARG_OF_PERICENTER":30.2831,"MEAN_ANOMALY":329.8516,"EPHEMERIS_TYPE":0,"CLASSIFICATION_TYPE":"U","NORAD_CAT_ID":67795,"ELEMENT_SET_NO":999,"REV_AT_EPOCH":408,"BSTAR":0.00097658,"MEAN_MOTION_DOT":0.00033518,"MEAN_MOTION_DDOT":0}]
